METEOSAT-10 (MSG-3)     
1 38552U 12035B   26197.76898441 -.00000019  00000+0  00000+0 0  9995
2 38552   4.7400  60.8739 0001221  16.6665 133.9327  1.00271271 51150
SES-5                   
1 38652U 12036A   26198.10391889  .00000023  00000+0  00000+0 0  9994
2 38652   0.0442 323.1939 0001966 153.0082 221.1059  1.00271759 44759
EXACTVIEW-1 (ADS-1B)    
1 38709U 12039C   26197.87173463  .00000031  00000+0  33114-4 0  9995
2 38709  98.9807 315.9364 0011957  87.2353 273.0194 14.24992448726932
MKA-PN 1                
1 38711U 12039E   26197.80937984  .00000043  00000+0  37803-4 0  9999
2 38711  98.9748 315.5215 0012521  84.4717 275.7889 14.25437023727060
COSMOS 2481             
1 38733U 12041A   26198.17201065  .00000085  00000+0  54904-3 0  9997
2 38733  82.4725  56.5285 0019256  13.5322 346.6270 12.42435351633475
GONETS-M 3              
1 38734U 12041B   26198.20742730 -.00000018  00000+0 -19575-3 0  9994
2 38734  82.4726  46.0024 0016868 359.3274   0.7781 12.44903638634404
GONETS-M 4              
1 38736U 12041D   26198.18874095  .00000030  00000+0  14216-3 0  9992
2 38736  82.4769  52.0609 0025329 349.9669  10.0902 12.43905292626681
INTELSAT 20 (IS-20)     
1 38740U 12043A   26198.06761521 -.00000034  00000+0  00000+0 0  9992
2 38740   0.0110  61.8578 0001260 119.1700 206.7087  1.00270598 51041
HYLAS 2                 
1 38741U 12043B   26198.11095286 -.00000269  00000+0  00000+0 0  9997
2 38741   2.5028  80.7045 0002351  56.2794 125.3113  1.00272414 51070
EXPRESS-MD2             
1 38745U 12044B   26197.74947897  .00020584  42970-5  36648-3 0  9994
2 38745  49.8372 328.3059 1559496 252.2640  90.2461 12.45416783564493
INTELSAT 21 (IS-21)     
1 38749U 12045A   26198.11382779 -.00000295  00000+0  00000+0 0  9992
2 38749   0.0481 246.2144 0001615 241.0925 150.6068  1.00272417 50820
SPOT 6                  
1 38755U 12047A   26198.17703225 -.00000048  00000+0 -49834-6 0  9992
2 38755  98.2108 265.1325 0001093  88.2618 271.8706 14.58538941737420
SMDC ONE 1.2            
1 38759U 12048B   26198.11466455  .00004733  00000+0  19815-3 0  9998
2 38759  64.6569  80.1707 0088469 167.4612 192.8746 15.21364221120709
CINEMA                  
1 38764U 12048G   26197.64401418  .00026050  00000+0  45466-3 0  9996
2 38764  64.6441 344.7483 0036451 169.4468 190.7446 15.49887262121800
METOP-B                 
1 38771U 12049A   26198.17611997  .00000038  00000+0  37383-4 0  9997
2 38771  98.6489 249.0746 0001148 244.1857 115.9202 14.21446731717524
BEIDOU-2 M6             
1 38775U 12050B   26196.82639704 -.00000044  00000+0  00000+0 0  9998
2 38775  56.5693  61.9476 0012890   1.6971 358.3817  1.86230913 93845
ASTRA 2F                
1 38778U 12051A   26198.13093647  .00000140  00000+0  00000+0 0  9994
2 38778   0.0840 255.4790 0002997 287.5774 187.1826  1.00270382 41434
GSAT-10                 
1 38779U 12051B   26198.14176986 -.00000175  00000+0  00000+0 0  9993
2 38779   0.0859 264.4590 0007444 190.3180 334.2173  1.00272744 50396
VRSS-1                  
1 38782U 12052A   26198.23562010  .00000991  00000+0  13685-3 0  9997
2 38782  97.6172 173.0322 0018771 134.5746 225.7002 14.80067421744055
NAVSTAR 67 (USA 239)    
1 38833U 12053A   26197.73157771  .00000015  00000+0  00000+0 0  9993
2 38833  53.5898 142.3889 0182122  66.2502 295.6136  2.00567949100035
GSAT0103 (GALILEO-FM3)  
1 38857U 12055A   26197.21850469 -.00000026  00000+0  00000+0 0  9991
2 38857  55.8227 100.7486 0003594 314.9576  45.0469  1.70473424 85502
SJ-9A                   
1 38860U 12056A   26198.20645771  .00000462  00000+0  59261-4 0  9995
2 38860  97.6730 169.0767 0026154 155.2963 204.9511 14.85530798704041
SJ-9B                   
1 38861U 12056B   26197.90159813  .00001059  00000+0  11118-3 0  9990
2 38861  97.6000 180.9316 0016795 113.6298 246.6686 14.91415535744153
INTELSAT 23 (IS-23)     
1 38867U 12057A   26198.18794513 -.00000295  00000+0  00000+0 0  9996
2 38867   0.0179 316.6424 0000706 295.6341  57.3680  1.00263147 50255
BEIDOU-2 G6             
1 38953U 12059A   26198.15322557 -.00000188  00000+0  00000+0 0  9997
2 38953   4.4954  73.1954 0008719 327.0832  33.8532  1.00273361 50210
LUCH-5B                 
1 38977U 12061A   26198.00761620 -.00000151  00000+0  00000+0 0  9998
2 38977  10.5467  49.5821 0003868 147.5239  84.1816  1.00270300 49907
YAMAL 300K              
1 38978U 12061B   26197.80515906  .00000000  00000+0  00000+0 0  9992
2 38978   0.0158  65.0881 0000163 190.5986 151.7571  1.00272636 49925
STAR ONE C3             
1 38991U 12062A   26198.09159012 -.00000259  00000+0  00000+0 0  9999
2 38991   0.0189  44.1627 0002209  79.2581 129.4676  1.00272973 50066
EUTELSAT 21B            
1 38992U 12062B   26198.12963647  .00000121  00000+0  00000+0 0  9998
2 38992   0.0700 338.8649 0003742 146.8945 237.4206  1.00282083 50120
ECHOSTAR 16             
1 39008U 12065A   26198.11313447 -.00000292  00000+0  00000+0 0  9996
2 39008   0.0184  52.3300 0002082  67.4399 154.3878  1.00269011 49940
YAOGAN-16 01A           
1 39011U 12066A   26198.05680676 -.00000067  00000+0  22676-4 0  9993
2 39011  63.3505 212.6532 0437896  27.3538 334.9823 13.45518213670169
